NORAD_CAT_ID,OBJECT_NAME,OBJECT_TYPE,EPOCH,MEAN_MOTION,ECCENTRICITY,INCLINATION,RA_OF_ASC_NODE,ARG_OF_PERICENTER,MEAN_ANOMALY,BSTAR,MEAN_MOTION_DOT,MEAN_MOTION_DDOT,TLE_LINE0,TLE_LINE1,TLE_LINE2,SEMIMAJOR_AXIS,PERIOD,APOGEE,PERIGEE,DECAYED
52303.0,STARLINK-3742,PAYLOAD,2022-10-08 11:59:29,15.08833408,0.0001923,53.2186,302.4554,40.4309,319.6826,3.5439000000000004e-05,2.76e-06,0.0,0 STARLINK-3742,1 52303U 22041AU  22281.49964796  .00000276  00000-0  35439-4 0  9994,2 52303  53.2186 302.4554 0001923  40.4309 319.6826 15.08833408 27293,6917.901,95.438,541.096,538.435,0.0
52303.0,STARLINK-3742,PAYLOAD,2022-10-09 05:28:43,15.08841921,0.0001891,53.2192,299.1846,41.2248,318.8887,6.505399999999999e-05,7.47e-06,0.0,0 STARLINK-3742,1 52303U 22041AU  22282.22828267  .00000747  00000-0  65054-4 0  9997,2 52303  53.2192 299.1846 0001891  41.2248 318.8887 15.08841921 27401,6917.875,95.437,541.048,538.431,0.0
52303.0,STARLINK-3742,PAYLOAD,2022-10-09 10:14:52,15.08841198,0.0001998,53.2165,298.2920000000001,37.4659,322.6472,3.781e-05,3.14e-06,0.0,0 STARLINK-3742,1 52303U 22041AU  22282.42700161  .00000314  00000-0  37810-4 0  9990,2 52303  53.2165 298.2920 0001998  37.4659 322.6472 15.08841198 27437,6917.877,95.437,541.124,538.36,0.0
52303.0,STARLINK-3742,PAYLOAD,2022-10-09 18:11:49,15.08833166,0.0002116,53.2178,296.8059,42.2947,317.8208,7.8536e-06,-1.63e-06,0.0,0 STARLINK-3742,1 52303U 22041AU  22282.75820757 -.00000163  00000-0  78536-5 0  9994,2 52303  53.2178 296.8059 0002116  42.2947 317.8208 15.08833166 27489,6917.901,95.438,541.23,538.302,0.0
52303.0,STARLINK-3742,PAYLOAD,2022-10-10 02:08:44,15.08843322,0.0001937,53.2176,295.3192,42.0094,318.1046,0.0002162,3.155e-05,0.0,0 STARLINK-3742,1 52303U 22041AU  22283.08940314  .00003155  00000-0  21620-3 0  9996,2 52303  53.2176 295.3192 0001937  42.0094 318.1046 15.08843322 27535,6917.87,95.437,541.075,538.395,0.0
52303.0,STARLINK-3742,PAYLOAD,2022-10-10 08:30:17,15.08839219,0.0001923,53.217,294.1289,47.4589,312.6565,0.00013519,1.864e-05,0.0,0 STARLINK-3742,1 52303U 22041AU  22283.35436521  .00001864  00000-0  13519-3 0  9999,2 52303  53.2170 294.1289 0001923  47.4589 312.6565 15.08839219 27575,6917.8830000000025,95.438,541.078,538.4169999999998,0.0
52303.0,STARLINK-3742,PAYLOAD,2022-10-10 18:02:35,15.08845106,0.0001955999999999,53.2164,292.3444,48.3123,311.8037,0.00022146,3.239e-05,0.0,0 STARLINK-3742,1 52303U 22041AU  22283.75180319  .00003239  00000-0  22146-3 0  9998,2 52303  53.2164 292.3444 0001956  48.3123 311.8037 15.08845106 27635,6917.865,95.437,541.0830000000002,538.377,0.0
52303.0,STARLINK-3742,PAYLOAD,2022-10-11 03:34:54,15.08844273,0.0002154,53.217,290.5614,46.3799,313.7371,0.00019387,2.799e-05,0.0,0 STARLINK-3742,1 52303U 22041AU  22284.14924431  .00002799  00000-0  19387-3 0  9996,2 52303  53.2170 290.5614 0002154  46.3799 313.7371 15.08844273 27691,6917.8669999999975,95.437,541.222,538.242,0.0
52303.0,STARLINK-3742,PAYLOAD,2022-10-11 09:56:27,15.08835414,0.0002231999999999,53.2181,289.373,42.6923,317.4242,5.0278e-06,-2.08e-06,0.0,0 STARLINK-3742,1 52303U 22041AU  22284.41420788 -.00000208  00000-0  50278-5 0  9992,2 52303  53.2181 289.3730 0002232  42.6923 317.4242 15.08835414 27733,6917.894,95.438,541.303,538.215,0.0
52303.0,STARLINK-3742,PAYLOAD,2022-10-12 00:14:56,15.08826232,0.0002177999999999,53.2181,286.6959,46.5455,313.5718,-0.00015962,-2.827e-05,0.0,0 STARLINK-3742,1 52303U 22041AU  22285.01037834 -.00002827  00000-0 -15962-3 0  9994,2 52303  53.2181 286.6959 0002178  46.5455 313.5718 15.08826232 27821,6917.922,95.438,541.294,538.281,0.0
52303.0,STARLINK-3742,PAYLOAD,2022-10-12 11:22:37,15.08854827,0.0001985,53.2184,284.6147,49.4986,310.6179,-0.00022088,-3.803e-05,0.0,0 STARLINK-3742,1 52303U 22041AU  22285.47404774 -.00003803  00000-0 -22088-3 0  9997,2 52303  53.2184 284.6147 0001985  49.4986 310.6179 15.08854827 27894,6917.835,95.437,541.073,538.327,0.0
52303.0,STARLINK-3742,PAYLOAD,2022-10-13 03:16:29,15.08838055,0.0001999,53.2183,281.641,45.6781,314.4375,9.8793e-05,1.284e-05,0.0,0 STARLINK-3742,1 52303U 22041AU  22286.13645498  .00001284  00000-0  98793-4 0  9997,2 52303  53.2183 281.6410 0001999  45.6781 314.4375 15.08838055 27995,6917.886,95.438,541.134,538.368,0.0
52303.0,STARLINK-3742,PAYLOAD,2022-10-13 11:13:33,15.08694906,0.0005022,53.2181,280.1548,222.0661,137.9946,-0.0011084,-0.00017821,0.0,0 STARLINK-3742,1 52303U 22041AU  22286.46774848 -.00017821  00000-0 -11084-2 0  9997,2 52303  53.2181 280.1548 0005022 222.0661 137.9946 15.08694906 28042,6918.324000000001,95.447,543.663,536.715,0.0
52303.0,STARLINK-3742,PAYLOAD,2022-10-14 04:42:39,15.08841611,0.0001575999999999,53.2182,276.8829,91.4802,268.637,0.00014822,2.072e-05,0.0,0 STARLINK-3742,1 52303U 22041AU  22287.19629173  .00002072  00000-0  14822-3 0  9992,2 52303  53.2182 276.8829 0001576  91.4802 268.6370 15.08841611 28154,6917.875,95.437,540.831,538.65,0.0
52303.0,STARLINK-3742,PAYLOAD,2022-10-14 06:18:03,15.08839473,0.0002015,53.2182,276.5854,43.44,316.6751,0.00013833,1.914e-05,0.0,0 STARLINK-3742,1 52303U 22041AU  22287.26253680  .00001914  00000-0  13833-3 0  9991,2 52303  53.2182 276.5854 0002015  43.4400 316.6751 15.08839473 28160,6917.882,95.438,541.141,538.3530000000002,0.0
52303.0,STARLINK-3742,PAYLOAD,2022-10-14 15:50:22,15.08845766,0.0001657,53.2174,274.8035,49.273,310.8406,3.9277e-05,3.37e-06,0.0,0 STARLINK-3742,1 52303U 22041AU  22287.65997824  .00000337  00000-0  39277-4 0  9998,2 52303  53.2174 274.8035 0001657  49.2730 310.8406 15.08845766 28226,6917.863,95.437,540.874,538.581,0.0
52303.0,STARLINK-3742,PAYLOAD,2022-10-15 02:58:02,15.08858605,0.0001776,53.2195,272.7174,56.489,303.6272,0.000133,1.83e-05,0.0,0 STARLINK-3742,1 52303U 22041AU  22288.12364352  .00001830  00000-0  13300-3 0  9992,2 52303  53.2195 272.7174 0001776  56.4890 303.6272 15.08858605 28293,6917.824000000001,95.436,540.9169999999998,538.46,0.0
52303.0,STARLINK-3742,PAYLOAD,2022-10-15 10:54:58,15.08853028,0.0001896,53.2172,271.2336,45.6163,314.4984,3.5157e-05,2.72e-06,0.0,0 STARLINK-3742,1 52303U 22041AU  22288.45484447  .00000272  00000-0  35157-4 0  9990,2 52303  53.2172 271.2336 0001896  45.6163 314.4984 15.08853028 28348,6917.840999999999,95.437,541.0169999999998,538.394,0.0
52303.0,STARLINK-3742,PAYLOAD,2022-10-16 09:10:24,15.08828287,0.0001833,53.2177,267.0707,44.6971,315.4168,-0.00015705,-2.786e-05,0.0,0 STARLINK-3742,1 52303U 22041AU  22289.38222431 -.00002786  00000-0 -15705-3 0  9996,2 52303  53.2177 267.0707 0001833  44.6971 315.4168 15.08828287 28484,6917.916,95.438,541.049,538.513,0.0
52303.0,STARLINK-3742,PAYLOAD,2022-10-16 15:31:56,15.08824741,0.0001805,53.2171,265.8822,43.7311,316.3824,-5.9218e-05,-1.23e-05,0.0,0 STARLINK-3742,1 52303U 22041AU  22289.64718562 -.00001230  00000-0 -59218-4 0  9991,2 52303  53.2171 265.8822 0001805  43.7311 316.3824 15.08824741 28524,6917.927,95.439,541.0409999999998,538.543,0.0
52303.0,STARLINK-3742,PAYLOAD,2022-10-17 01:04:15,15.08837124,0.0001720999999999,53.2195,264.0971,46.2483,313.8651,-0.00010722,-1.994e-05,0.0,0 STARLINK-3742,1 52303U 22041AU  22290.04462050 -.00001994  00000-0 -10722-3 0  9998,2 52303  53.2195 264.0971 0001721  46.2483 313.8651 15.08837124 28586,6917.889,95.438,540.945,538.564,0.0
52303.0,STARLINK-3742,PAYLOAD,2022-10-17 07:25:47,15.08847938,0.000196,53.2181,262.9077,45.92100000000001,314.1943,-4.3434e-05,-9.8e-06,0.0,0 STARLINK-3742,1 52303U 22041AU  22290.30957217 -.00000980  00000-0 -43434-4 0  9992,2 52303  53.2181 262.9077 0001960  45.9210 314.1943 15.08847938 28621,6917.856,95.437,541.077,538.365,0.0
52303.0,STARLINK-3742,PAYLOAD,2022-10-17 15:22:42,15.08841586,0.0001893,53.2181,261.4208,44.1153,315.999,0.00011065,1.473e-05,0.0,0 STARLINK-3742,1 52303U 22041AU  22290.64077089  .00001473  00000-0  11065-3 0  9999,2 52303  53.2181 261.4208 0001893  44.1153 315.9990 15.08841586 28672,6917.876,95.437,541.05,538.431,0.0
52303.0,STARLINK-3742,PAYLOAD,2022-10-18 04:05:48,15.08831835,0.0001901,53.2182,259.0426,46.9832,313.1319,0.00018667,2.683e-05,0.0,0 STARLINK-3742,1 52303U 22041AU  22291.17069557  .00002683  00000-0  18667-3 0  9998,2 52303  53.2182 259.0426 0001901  46.9832 313.1319 15.08831835 28752,6917.905,95.438,541.085,538.455,0.0
52303.0,STARLINK-3742,PAYLOAD,2022-10-18 07:16:34,15.08832793,0.0001899999999999,53.2186,258.4486,46.2795,313.8354,0.00016056,2.268e-05,0.0,0 STARLINK-3742,1 52303U 22041AU  22291.30317672  .00002268  00000-0  16056-3 0  9996,2 52303  53.2186 258.4486 0001900  46.2795 313.8354 15.08832793 28777,6917.901999999999,95.438,541.082,538.453,0.0
52303.0,STARLINK-3742,PAYLOAD,2022-10-18 15:13:30,15.08826845,0.000196,53.2182,256.9611,46.8527,313.2628,0.00012269,1.664e-05,0.0,0 STARLINK-3742,1 52303U 22041AU  22291.63438407  .00001664  00000-0  12269-3 0  9993,2 52303  53.2182 256.9611 0001960  46.8527 313.2628 15.08826845 28826,6917.920999999999,95.438,541.1419999999998,538.43,0.0
52303.0,STARLINK-3742,PAYLOAD,2022-10-19 07:07:22,15.08833908,0.000196,53.2185,253.9875,48.536,311.58,-1.6881e-05,-5.57e-06,0.0,0 STARLINK-3742,1 52303U 22041AU  22292.29678779 -.00000557  00000-0 -16881-4 0  9991,2 52303  53.2185 253.9875 0001960  48.5360 311.5800 15.08833908 28924,6917.899,95.438,541.12,538.408,0.0
52303.0,STARLINK-3742,PAYLOAD,2022-10-20 03:47:22,15.08845173,0.0001789,53.2192,250.1215,48.72,311.3946,9.8663e-05,1.283e-05,0.0,0 STARLINK-3742,1 52303U 22041AU  22293.15789612  .00001283  00000-0  98663-4 0  9999,2 52303  53.2192 250.1215 0001789  48.7200 311.3946 15.08845173 29054,6917.865,95.437,540.967,538.492,0.0
52303.0,STARLINK-3742,PAYLOAD,2022-10-20 06:58:09,15.08840016,0.000182,53.2191,249.5268,48.9017,311.2132,1.2328e-06,-2.69e-06,0.0,0 STARLINK-3742,1 52303U 22041AU  22293.29038237 -.00000269  00000-0  12328-5 0  9993,2 52303  53.2191 249.5268 0001820  48.9017 311.2132 15.08840016 29076,6917.88,95.438,541.004,538.486,0.0
